[{"OBJECT_NAME":"GAOFEN-9 02","OBJECT_ID":"2020-034B","EPOCH":"2026-03-10T00:01:23.433024","MEAN_MOTION":15.24736529,"ECCENTRICITY":0.00138652,"INCLINATION":97.5615,"RA_OF_ASC_NODE":225.1997,"ARG_OF_PERICENTER":60.5372,"MEAN_ANOMALY":299.7247,"EPHEMERIS_TYPE":0,"CLASSIFICATION_TYPE":"U","NORAD_CAT_ID":45625,"ELEMENT_SET_NO":999,"REV_AT_EPOCH":32104,"BSTAR":0.00036092627,"MEAN_MOTION_DOT":8.888e-5,"MEAN_MOTION_DDOT":0},{"OBJECT_NAME":"STARLINK-36451","OBJECT_ID":"2026-003F","EPOCH":"2026-03-08T12:26:34.874880","MEAN_MOTION":15.27586134,"ECCENTRICITY":0.00014946,"INCLINATION":43.001,"RA_OF_ASC_NODE":233.7783,"ARG_OF_PERICENTER":268.3388,"MEAN_ANOMALY":91.7293,"EPHEMERIS_TYPE":0,"CLASSIFICATION_TYPE":"U","NORAD_CAT_ID":67339,"ELEMENT_SET_NO":999,"REV_AT_EPOCH":864,"BSTAR":0.001116091,"MEAN_MOTION_DOT":0.00030584,"MEAN_MOTION_DDOT":0}]
